GLOBALSTAR M067 [+]     
1 32263U 07048A   24008.66139660 -.00000123  00000+0 -18961-3 0  9991
2 32263  51.9725 133.6148 0000159  98.7937   5.1019 12.40636323744259
GLOBALSTAR M079 [+]     
1 37188U 10054A   24009.20979698 -.00000065  00000+0  21577-3 0  9998
2 37188  52.0055 297.9035 0000496  50.8408 114.3767 12.62265394610832
GLOBALSTAR M074 [+]     
1 37189U 10054B   24008.97986187 -.00000076  00000+0  15322-3 0  9996
2 37189  52.0030 298.0077 0000720  53.2377  26.3870 12.62263906610807
GLOBALSTAR M076 [+]     
1 37190U 10054C   24009.09189505 -.00000087  00000+0  91009-4 0  9990
2 37190  52.0042 297.7934 0000565   0.4568 106.6344 12.62257386610828
GLOBALSTAR M077 [+]     
1 37191U 10054D   24008.83442623 -.00000058  00000+0  25761-3 0  9994
2 37191  52.0062 255.2810 0000999  60.8093  16.0221 12.62268498610809
